#dP2024  4  9  6  0  0.00000000      96 __u+U IGS20 EXT  IAC
## 2309 194400.00000000   900.00000000 60409 0.2500000000000
+  120   C06C07C08C09C10C11C12C13C14C16C19C20C21C22C23C24C25
+        C26C27C28C29C30C32C33C34C35C36C37C38C39C40C41C42C43
+        C44C45C46E02E03E04E05E07E08E09E10E11E12E13E14E15E18
+        E19E21E24E25E26E27E30E31E33E34E36G01G02G03G04G05G06
+        G07G08G09G10G11G12G13G14G15G16G17G18G19G20G21G22G23
+        G24G25G26G27G28G29G30G31G32J02J03J04R01R02R03R04R05
+        R07R08R09R11R12R13R14R15R16R17R18R19R20R21R22R24R25
+        R26  0  0  0  0  0  0  0  0  0  0  0  0  0  0  0  0
++         8  9  8  7  8 10 10  9 10 10  7  9  8  8  9  7  8
++         8  9 10  7  9 10  9  9  8  8 10  9 11 10  9 10  8
++         9  9  9  7  8  8  7  7  7  8  7  8  8  8  7  8  9
++         7  8  7  7  8  9  9  8  8  8  7  9  8  7  7  7  8
++         8  9  7  7  8  9  7  8  7  8  8  8  8  7  7  8  7
++         8  7  8  7  8  7  7  8  7  9  9  0  8  7  9  9  9
++         6  7  8  7  8 10 10 10  7  9  8 10 10  9  8  8  9
++         8  0  0  0  0  0  0  0  0  0  0  0  0  0  0  0  0
%c M  cc GPS ccc cccc cccc cccc cccc ccccc ccccc ccccc ccccc
%c cc cc ccc ccc cccc cccc cccc cccc ccccc ccccc ccccc ccccc
%f  0.0000000  0.000000000  0.00000000000  0.000000000000000
%f  0.0000000  0.000000000  0.00000000000  0.000000000000000
%i    0    0    0    0      0      0      0      0         0
%i    0    0    0    0      0      0      0      0         0
/* IAC                                ULTRA-RAPID PREDICTION
/* S/V CLOCKS ARE ALIGNED TO GNSS TIME                      
/* G:C1WC2W R:C1PC2P E:C1XC5X C:C2IC6I J:C1CC2S             
/* PCV:IGS20_2290 OL/AL:FES2004  NONE     YN ORB:CoN CLK:CoN
*  2024 04 10  4 30  0.00000000
PC06  -4195.629063  40107.532930 -11749.554791    335.016676
PC07  -9214.544002  26180.734549  31812.595343   -834.625141
PC08 -21166.283746  30762.504286 -19785.411607    -11.738173
PC09  -1169.958839  41413.848738  -5231.927141   -741.192493
PC10    568.678596  28430.866257  31537.064243      7.679333
PC11  17968.251885   7125.476219 -20066.063297    504.369312
PC12  14852.257895  23015.533726  -5291.203529   -228.970260
PC13 -13653.264839  31153.837584 -24928.793479    430.223064
PC14  27868.950113   1922.616589   -618.621122    608.100275
PC16  -7508.589760  37662.603654 -16707.499518   -449.054318
PC19 -26205.194915   4290.473003  -8497.156191   -915.044853
PC20 -25745.610141  -6959.747132   8160.865421   -344.727741
PC21   9588.534844  15060.957737 -21436.850711   -962.581865
PC22 -11593.348604  13768.294652 -21313.683355    -44.101706
PC23  14694.100732 -23706.606840   -890.866050   -775.583641
PC24  14309.439926   7919.801049  22595.189622    942.509344
PC25  20175.490361 -11925.028176  15123.668450    371.038912
PC26    530.691785  22212.718773  16884.556536   -275.101031
PC27 -10111.158444 -25796.564901  -3404.021107    296.877785
PC28   2613.069663 -21842.383614 -17169.912040    226.907802
PC29 -16109.327903   3549.222470  22500.611177    266.162318
PC30 -18918.028255 -16238.722796  12549.552509    -53.195600
PC32  -9543.093294 -15032.197943  21500.800268   -599.034383
PC33  26243.016450  -4438.259836   8440.176741   -969.429629
PC34  19179.182279  14811.009035 -13835.576748    408.948320
PC35  -2044.870944  21793.935693  17269.376758    390.596165
PC36 -20446.798611  11263.051574 -15279.459392     46.594136
PC37    179.674783 -22333.989967 -16709.422945   -955.998009
PC38 -25187.598900  31615.205201 -12171.659912    148.071963
PC39  -9114.998693  34678.662678 -21936.129431     -7.928569
PC40 -13330.139240  19704.245405  34781.445723    -64.778329
PC41  12486.615043 -13606.210932  20986.059583   -922.032140
PC42  25021.079408   7818.410063  -9576.601784   -443.589959
PC43  16622.108338  -2613.680612 -22272.628327     67.413091
PC44  10994.945979  25386.223797   3505.886745    439.228772
PC45 -14774.319581  23670.710560    899.022971    -79.563689
PC46 -14720.984387  -7034.509370 -22649.360488   -138.754033
PE02   6511.027098  15486.847714  24361.150239    118.238168
PE03  15771.943783  22118.354567 -11769.540121   -106.172331
PE04 -25601.715562 -13105.542200  -6973.671565   -370.010694
PE05  -3120.490058  18009.131565 -23273.393121   4737.150151
PE07  20569.857854  -3010.475532  21087.486387   -113.720319
PE08  25496.127990  13679.196107   6288.003542   -252.615037
PE09 -20541.576766   2826.791817 -21108.671382   -401.710424
PE10 -16198.009198   2016.137410  24685.312177   -615.975843
PE11 -15435.899366  13885.008093  21077.317517   3061.484156
PE12 -14601.920899  -8952.204203  24141.193345   -987.398586
PE13  15489.980673 -13277.254132 -21450.260541    -20.942401
PE14  -7578.021012 -20897.803108 -13712.422444      2.278774
PE15  14381.686027   9509.106798 -24054.192440    -96.214905
PE18  22388.699821  21525.313952   2807.665014    533.775483
PE19 -13930.213787 -22321.525118  13572.418126   -271.429006
PE21  13972.746855 -19167.094352 -17713.942436   -588.462189
PE24 -27297.951635  11473.150349     70.279527   -699.128999
PE25 -14373.193317  19124.449620  17431.614552      3.159896
PE26   7226.169568 -28126.349435  -5751.742522    421.456707
PE27  27150.439388 -11773.904835   -421.018873   -320.568253
PE30  24074.039713   2696.039825  16987.979665   -183.252796
PE31 -24168.377762  -2469.626402 -16912.138271    -20.444314
PE33  -4528.411866 -26652.232548  12061.171522     10.213630
PE34   4911.528891  26369.158056 -12523.774046   -104.822403
PE36  -7537.279562  27897.133777   6371.817940   -211.261783
PG01 -10566.880011  20593.495980  12372.167474    178.995495
PG02 -14032.007650  10784.224608  20204.192300   -455.942555
PG03 -23131.190078  12624.972748  -2879.465469    302.167493
PG04 -16564.593263   4964.129173 -20179.293123    335.275669
PG05  23917.288861  -3744.867551 -11205.024134   -168.583787
PG06   6070.558424  22333.236373 -12863.419299    328.995144
PG07  -5430.124824  25302.684557  -4211.812934   -103.918328
PG08 -22393.252365  -2693.787012  14250.036988    112.550241
PG09  -4106.585846  15349.804705 -21354.162050    154.989267
PG10  -3754.717725 -14485.110646  22128.601875     -7.200120
PG11  12537.496260  11567.465408 -20347.705213   -632.163669
PG12  24272.496240 -10581.273873  -1913.083578   -495.193169
PG13  21835.787328  12385.366204   8816.507508    641.471350
PG14   -632.827768  16544.488787  20757.525118    372.495938
PG15  22581.466311     85.656626  13644.400947    146.809773
PG16 -22620.318094  -2563.174937 -14385.186768   -320.468659
PG17   7894.723446  20184.100847  15666.543958    711.257519
PG18   5509.046852 -25590.721633  -3826.901375   -591.769948
PG19  15831.688723  20353.815643   6955.529531    466.077082
PG20  17648.508673   4401.797518 -19241.860872    380.738752
PG21 -15164.395408   4206.209774  21726.745093    127.846997
PG22   7340.945774  13658.687950  21969.002920      2.784450
PG23   9425.571791 -17675.473132  17365.394519    197.325849
PG24  14650.659851  -8759.689022  19836.890812   -457.542912
PG25  17799.771901 -16753.774441 -10392.335340    493.415647
PG26 -13736.146391  -9927.549226 -20669.119274    168.681281
PG27 -23174.512777 -12684.933132   4165.525271    -17.689695
PG28  -5772.617867 -23778.582761 -10349.373524   -197.343843
PG29   7442.817331 -13214.666451 -21849.252901   -602.352041
PG30   1932.930225  25694.627689   5962.852308   -407.450091
PG31 -11126.899152 -15856.697544 -18206.045404   -228.028734
PG32 -11976.321624 -19778.779824  13458.323573   -617.890450
PJ02 -30842.602744  26309.645275  16795.753491     -3.882041
PJ03 -27356.713858  25625.343207  24396.056614     -0.080354
PJ04      0.000000      0.000000      0.000000     50.443441
PR01 -11992.787167 -11847.430489  19144.303492     82.062587
PR02 -23696.434261  -8268.082412   4788.907639    -22.696577
PR03 -22308.166616    591.951940 -12353.081399     97.954895
PR04  -8715.622809   8503.700678 -22379.413599    231.368265
PR05   9454.499602  12119.996003 -20332.102497    129.749868
PR07  21759.284188  -1139.059972  13271.157791     79.896698
PR08   8364.837341  -8833.761541  22481.766981    -75.033315
PR09  12834.973687   1965.396790  21987.140231    180.173973
PR11  15583.353484 -19760.207707  -4215.911483     28.455275
PR12   1673.007402 -15756.260894 -19963.981506     38.821794
PR13 -10905.910009  -4227.445299 -22684.447053    -46.142432
PR14 -19073.970004  12419.948338 -11485.274948     26.359628
PR15 -14888.552833  19887.754300   5786.885103     80.650115
PR16  -1878.870305  15810.485286  19923.391883     24.697858
PR17  -9907.266419   3902.137815  23184.138226     76.663720
PR18  -2609.892040  19033.031712  16760.523993    136.421056
PR19   4501.238801  24879.552399   3365.102839   -272.523101
PR20  11370.081245  15703.593225 -16545.158919   -111.013952
PR21   9869.468765  -3760.368863 -23221.586287    -91.515717
PR22   2772.932909 -19860.225609 -15752.530785    115.602195
PR24 -12428.651585 -14640.896987  16796.093466    -51.218987
PR25  10304.055971  -3754.594653 -23026.768160    -28.186799
PR26   9529.979730  -8425.591458  22139.947929    -25.716437
EOF
